{
  "features": [
    {
      "geometry": {
        "coordinates": [
          -97.82182,
          30.27214
        ],
        "type": "Point"
      },
      "properties": {
        "desc": {
          "cause": {
            "EN-US": "Under Investigation",
            "ES-ES": "Investigaci\u00f3n en curso",
            "es-US": "Investigaci\u00f3n en curso",
            "orig": "No Selection"
          },
          "cluster": false,
          "comments": null,
          "crew_icon": false,
          "crew_status": {
            "EN-US": "Pending",
            "ES-ES": "Pendiente",
            "es-US": "Pendiente",
            "orig": "N/A"
          },
          "cust_a": {
            "val": 1
          },
          "etr": "2026-10-05T02:34:01Z",
          "etr_confidence": null,
          "inc_id": null,
          "n_out": 1,
          "start_time": "2026-10-05T00:18:58Z"
        },
        "id": "7-0",
        "source": "https://kubra.io/cluster-data/103/20d293c6-08fd-41b3-b96b-d2f522c74990/78a45f1c-8b04-46b8-aedb-1e9e8d876bb5/public/cluster-1/0231301.json",
        "title": "Area Outage"
      },
      "type": "Feature"
    }
  ],
  "type": "FeatureCollection"
}
